[{"OBJECT_NAME":"YAOGAN-36 04C","OBJECT_ID":"2022-171E","EPOCH":"2026-03-09T18:55:44.889600","MEAN_MOTION":15.29852307,"ECCENTRICITY":0.00066848,"INCLINATION":34.9797,"RA_OF_ASC_NODE":96.6578,"ARG_OF_PERICENTER":275.3761,"MEAN_ANOMALY":84.6192,"EPHEMERIS_TYPE":0,"CLASSIFICATION_TYPE":"U","NORAD_CAT_ID":54750,"ELEMENT_SET_NO":999,"REV_AT_EPOCH":18024,"BSTAR":0.00054591902,"MEAN_MOTION_DOT":0.00016196,"MEAN_MOTION_DDOT":0},{"OBJECT_NAME":"STARLINK-33749","OBJECT_ID":"2025-087V","EPOCH":"2026-03-09T22:27:19.059264","MEAN_MOTION":15.30199515,"ECCENTRICITY":0.00012516,"INCLINATION":53.16,"RA_OF_ASC_NODE":218.6688,"ARG_OF_PERICENTER":67.0175,"MEAN_ANOMALY":293.0958,"EPHEMERIS_TYPE":0,"CLASSIFICATION_TYPE":"U","NORAD_CAT_ID":63716,"ELEMENT_SET_NO":999,"REV_AT_EPOCH":4923,"BSTAR":0.0011386374,"MEAN_MOTION_DOT":0.00033516,"MEAN_MOTION_DDOT":0}]
